{"spkid": "50560840", "covariance": {"epoch": "2459008.5", "labels": ["e", "q", "tp", "node", "peri", "i"], "data": [["5.950611795397249E-15", "-8.751410593227836E-15", "1.884689820649539E-12", "1.299440018611324E-15", "1.354768933430018E-12", "-2.348914556260629E-13"], ["-8.751410593227836E-15", "1.287176410408534E-14", "-2.762012518419711E-12", "-1.694180045555388E-15", "-1.98929804641207E-12", "3.467175451097353E-13"], ["1.884689820649539E-12", "-2.762012518419711E-12", "8.449030351591287E-10", "2.86910264933625E-11", "6.157713089232834E-10", "-7.931013982502973E-11"], ["1.299440018611324E-15", "-1.694180045555388E-15", "2.86910264933625E-11", "5.739713798985616E-11", "-2.68239472377057E-11", "-1.806787530600992E-11"], ["1.354768933430018E-12", "-1.98929804641207E-12", "6.157713089232834E-10", "-2.68239472377057E-11", "5.228591197372439E-10", "-4.843345402232794E-11"], ["-2.348914556260629E-13", "3.467175451097353E-13", "-7.931013982502973E-11", "-1.806787530600992E-11", "-4.843345402232794E-11", "5.851704709979985E-11"]], "elements": [{"sigma": 7.71402086813177e-08, "name": "e", "units": null, "title": "eccentricity", "value": ".379960287639805", "label": "e"}, {"label": "q", "sigma": 1.13453797221976e-07, "name": "q", "value": ".934377259556524", "title": "perihelion distance", "units": "au"}, {"name": "tp", "sigma": 2.90672158136814e-05, "value": "2459085.167272590406", "title": "time of perihelion passage", "units": "TDB", "label": "tp"}, {"label": "node", "sigma": 7.57608988792082e-06, "name": "om", "units": "deg", "value": "22.1331051090128", "title": "longitude of the ascending node"}, {"label": "peri", "name": "w", "sigma": 2.28661129127196e-05, "units": "deg", "value": "231.3660397768192", "title": "argument of perihelion"}, {"units": "deg", "value": "12.49323872648482", "title": "inclination", "sigma": 7.64964359299176e-06, "name": "i", "label": "i"}]}, "elements": [{"name": "e", "sigma": "7.7015E-8", "title": "eccentricity", "value": ".3799680819850117", "units": null, "label": "e"}, {"label": "a", "sigma": "4.506E-9", "name": "a", "title": "semi-major axis", "value": "1.506928786663497", "units": "au"}, {"label": "q", "name": "q", "sigma": "1.1346E-7", "value": ".9343439459069673", "title": "perihelion distance", "units": "au"}, {"label": "i", "sigma": "7.6481E-6", "name": "i", "title": "inclination; angle with respect to x-y ecliptic plane", "value": "12.4887048046814", "units": "deg"}, {"label": "node", "title": "longitude of the ascending node", "value": "22.07344291010601", "units": "deg", "name": "om", "sigma": "7.5771E-6"}, {"name": "w", "sigma": "2.291E-5", "title": "argument of perihelion", "value": "231.4600285718065", "units": "deg", "label": "peri"}, {"label": "M", "sigma": "2.041E-5", "name": "ma", "title": "mean anomaly", "value": "46.91465594364432", "units": "deg"}, {"label": "tp", "sigma": "3.7935E-5", "name": "tp", "title": "time of perihelion passage", "value": "2461112.447121951069", "units": "TDB"}, {"name": "per", "sigma": "3.0306E-6", "value": "675.6744872155336", "title": "sidereal orbital period", "units": "d", "label": "period"}, {"name": "n", "sigma": "2.3898E-9", "title": "mean motion", "value": ".5328009371547626", "units": "deg/d", "label": "n"}, {"label": "Q", "name": "ad", "sigma": "6.2182E-9", "title": "aphelion distance", "value": "2.079513627420027", "units": "au"}], "epoch": "2461200.5"}